{
    "links": {
        "self": "http://www.neowsapp.com/rest/v1/neo/3578829?api_key=iIulBulltgU6a56xZRHN4H3l9WmuAYTsLGpBGhQ2"
    },
    "id": "3578829",
    "neo_reference_id": "3578829",
    "name": "(2011 SH16)",
    "designation": "2011 SH16",
    "nasa_jpl_url": "http://ssd.jpl.nasa.gov/sbdb.cgi?sstr=3578829",
    "absolute_magnitude_h": 22.0,
    "estimated_diameter": {
        "kilometers": {
            "estimated_diameter_min": 0.1058168859,
            "estimated_diameter_max": 0.2366137501
        },
        "meters": {
            "estimated_diameter_min": 105.8168859331,
            "estimated_diameter_max": 236.6137501138
        },
        "miles": {
            "estimated_diameter_min": 0.0657515442,
            "estimated_diameter_max": 0.1470249225
        },
        "feet": {
            "estimated_diameter_min": 347.1682720448,
            "estimated_diameter_max": 776.2918559233
        }
    },
    "is_potentially_hazardous_asteroid": false,
    "close_approach_data": [
        {
            "close_approach_date": "2011-08-15",
            "close_approach_date_full": "2011-Aug-15 15:46",
            "epoch_date_close_approach": 1313423160000,
            "relative_velocity": {
                "kilometers_per_second": "3.3112729809",
                "kilometers_per_hour": "11920.5827311543",
                "miles_per_hour": "7406.986530922"
            },
            "miss_distance": {
                "astronomical": "0.2354396482",
                "lunar": "91.5860231498",
                "kilometers": "35221269.884269334",
                "miles": "21885482.2627874492"
            },
            "orbiting_body": "Earth"
        }
    ],
    "orbital_data": {
        "orbit_id": "8",
        "orbit_determination_date": "2020-07-08 06:49:57",
        "first_observation_date": "2011-09-17",
        "last_observation_date": "2011-09-29",
        "data_arc_in_days": 12,
        "observations_used": 19,
        "orbit_uncertainty": "8",
        "minimum_orbit_intersection": ".232434",
        "jupiter_tisserand_invariant": "3.398",
        "epoch_osculation": "2455824.5",
        "eccentricity": ".4742650548436836",
        "semi_major_axis": "2.344423943521154",
        "inclination": "3.98488271427259",
        "ascending_node_longitude": "68.40896629394067",
        "orbital_period": "1311.150814621547",
        "perihelion_distance": "1.232545593370249",
        "perihelion_argument": "255.8336327967962",
        "aphelion_distance": "3.456302293672058",
        "perihelion_time": "2455789.069513020803",
        "mean_anomaly": "9.728076412165095",
        "mean_motion": ".2745679566266456",
        "equinox": "J2000",
        "orbit_class": {
            "orbit_class_type": "AMO",
            "orbit_class_description": "Near-Earth asteroid orbits similar to that of 1221 Amor",
            "orbit_class_range": "1.017 AU < q (perihelion) < 1.3 AU"
        }
    },
    "is_sentry_object": false
}